[{"OBJECT_NAME":"STARLINK-3285","OBJECT_ID":"2021-125AB","EPOCH":"2026-03-09T19:16:25.120128","MEAN_MOTION":15.08829905,"ECCENTRICITY":9.903e-5,"INCLINATION":53.2154,"RA_OF_ASC_NODE":248.622,"ARG_OF_PERICENTER":96.1062,"MEAN_ANOMALY":264.0043,"EPHEMERIS_TYPE":0,"CLASSIFICATION_TYPE":"U","NORAD_CAT_ID":50181,"ELEMENT_SET_NO":999,"REV_AT_EPOCH":23662,"BSTAR":0.0003869058,"MEAN_MOTION_DOT":5.873e-5,"MEAN_MOTION_DDOT":0},{"OBJECT_NAME":"FENGYUN 1C DEB","OBJECT_ID":"1999-025QK","EPOCH":"2026-03-09T09:38:35.752416","MEAN_MOTION":15.21777611,"ECCENTRICITY":0.00584989,"INCLINATION":98.8236,"RA_OF_ASC_NODE":15.4163,"ARG_OF_PERICENTER":235.7553,"MEAN_ANOMALY":123.8129,"EPHEMERIS_TYPE":0,"CLASSIFICATION_TYPE":"U","NORAD_CAT_ID":30082,"ELEMENT_SET_NO":999,"REV_AT_EPOCH":2608,"BSTAR":0.001566847,"MEAN_MOTION_DOT":0.00037313,"MEAN_MOTION_DDOT":0}]
